HIMAWARI-8              
1 40267U 14060A   23251.53382604 -.00000287  00000+0  00000+0 0  9990
2 40267   0.0184 239.1771 0000910 342.1758  98.7972  1.00274046 32601
